$$SOE
2460154.500000000, A.D. 2023-Jul-29 00:00:00.0000, -4.660095467203071E+08, 6.650775531908904E+07, -2.288108669791718E+07,
2460161.500000000, A.D. 2023-Aug-05 00:00:00.0000, -4.676476813589911E+08, 5.655053307484420E+07, -2.122785427199585E+07,
2460168.500000000, A.D. 2023-Aug-12 00:00:00.0000, -4.690693424921281E+08, 4.656710780100447E+07, -1.956479046135863E+07,
2460175.500000000, A.D. 2023-Aug-19 00:00:00.0000, -4.702742170941796E+08, 3.656213394415807E+07, -1.789267951067929E+07,
2460182.500000000, A.D. 2023-Aug-26 00:00:00.0000, -4.712620975437208E+08, 2.654026117274107E+07, -1.621230756761875E+07,
2460189.500000000, A.D. 2023-Sep-02 00:00:00.0000, -4.720328811006705E+08, 1.650613196681451E+07, -1.452446225458613E+07,
2460196.500000000, A.D. 2023-Sep-09 00:00:00.0000, -4.725865693094252E+08, 6.464379127745077E+06, -1.282993225580903E+07,
2460203.500000000, A.D. 2023-Sep-16 00:00:00.0000, -4.729232671610594E+08, -3.580376848712683E+06, -1.112950694013014E+07,
2460210.500000000, A.D. 2023-Sep-23 00:00:00.0000, -4.730431815996684E+08, -1.362353024767961E+07, -9.423976034478216E+06,
2460217.500000000, A.D. 2023-Sep-30 00:00:00.0000, -4.729466197136719E+08, -2.366049126680816E+07, -7.714129219708520E+06,
2460224.500000000, A.D. 2023-Oct-07 00:00:00.0000, -4.726339889675573E+08, -3.368668634649713E+07, -6.000755477492386E+06,
2460231.500000000, A.D. 2023-Oct-14 00:00:00.0000, -4.721057984374214E+08, -4.369756101099696E+07, -4.284642554655921E+06,
2460238.500000000, A.D. 2023-Oct-21 00:00:00.0000, -4.713626578242525E+08, -5.368858361557764E+07, -2.566576710109789E+06,
2460245.500000000, A.D. 2023-Oct-28 00:00:00.0000, -4.704052756695427E+08, -6.365524773792717E+07, -8.473424287804216E+05,
2460252.500000000, A.D. 2023-Nov-04 00:00:00.0000, -4.692344580240034E+08, -7.359307398400472E+07, 8.722779491985552E+05,
2460259.500000000, A.D. 2023-Nov-11 00:00:00.0000, -4.678511073942621E+08, -8.349761180818915E+07, 2.591504618636727E+06,
2460266.500000000, A.D. 2023-Nov-18 00:00:00.0000, -4.662562217507610E+08, -9.336444141135089E+07, 4.309560693395212E+06,
2460273.500000000, A.D. 2023-Nov-25 00:00:00.0000, -4.644508935262453E+08, -1.031891756934460E+08, 6.025672579698853E+06,
2460280.500000000, A.D. 2023-Dec-02 00:00:00.0000, -4.624363085786270E+08, -1.129674622712149E+08, 7.739070335216403E+06,
2460287.500000000, A.D. 2023-Dec-09 00:00:00.0000, -4.602137450424320E+08, -1.226949856194690E+08, 9.448988001961567E+06,
2460294.500000000, A.D. 2023-Dec-16 00:00:00.0000, -4.577845717834443E+08, -1.323674693229612E+08, 1.115466388762318E+07,
2460301.500000000, A.D. 2023-Dec-23 00:00:00.0000, -4.551502461101078E+08, -1.419806777507322E+08, 1.285534081945422E+07,
2460308.500000000, A.D. 2023-Dec-30 00:00:00.0000, -4.523123120833877E+08, -1.515304161028584E+08, 1.455026657923787E+07,
2460315.500000000, A.D. 2024-Jan-06 00:00:00.0000, -4.492724011990685E+08, -1.610125311898765E+08, 1.623869448871345E+07,
2460322.500000000, A.D. 2024-Jan-13 00:00:00.0000, -4.460322322718573E+08, -1.704229147512370E+08, 1.791988370652076E+07,
2460329.500000000, A.D. 2024-Jan-20 00:00:00.0000, -4.425936092985265E+08, -1.797575062268471E+08, 1.959309937630560E+07,
2460336.500000000, A.D. 2024-Jan-27 00:00:00.0000, -4.389584193278683E+08, -1.890122943290447E+08, 2.125761286498564E+07,
2460343.500000000, A.D. 2024-Feb-03 00:00:00.0000, -4.351286307659431E+08, -1.981833183651898E+08, 2.291270205239201E+07,
2460350.500000000, A.D. 2024-Feb-10 00:00:00.0000, -4.311062918418247E+08, -2.072666696041839E+08, 2.455765162261235E+07,
2460357.500000000, A.D. 2024-Feb-17 00:00:00.0000, -4.268935290989408E+08, -2.162584926802292E+08, 2.619175334479024E+07,
2460364.500000000, A.D. 2024-Feb-24 00:00:00.0000, -4.224925458794783E+08, -2.251549870191297E+08, 2.781430634130200E+07,
2460371.500000000, A.D. 2024-Mar-02 00:00:00.0000, -4.179056207749311E+08, -2.339524083192784E+08, 2.942461733802772E+07,
2460378.500000000, A.D. 2024-Mar-09 00:00:00.0000, -4.131351059056461E+08, -2.426470701498561E+08, 3.102200087890448E+07,
2460385.500000000, A.D. 2024-Mar-16 00:00:00.0000, -4.081834246353356E+08, -2.512353454688169E+08, 3.260577948467425E+07,
2460392.500000000, A.D. 2024-Mar-23 00:00:00.0000, -4.030530688250457E+08, -2.597136669514975E+08, 3.417528385597693E+07,
2460399.500000000, A.D. 2024-Mar-30 00:00:00.0000, -3.977465978682665E+08, -2.680785261567863E+08, 3.572985332410622E+07,
2460406.500000000, A.D. 2024-Apr-06 00:00:00.0000, -3.922666392523178E+08, -2.763264748995080E+08, 3.726883625070333E+07,
2460413.500000000, A.D. 2024-Apr-13 00:00:00.0000, -3.866158870972534E+08, -2.844541279935762E+08, 3.879159011920626E+07,
2460420.500000000, A.D. 2024-Apr-20 00:00:00.0000, -3.807970996261132E+08, -2.924581646888499E+08, 4.029748162431698E+07,
2460427.500000000, A.D. 2024-Apr-27 00:00:00.0000, -3.748130970837793E+08, -3.003353293623023E+08, 4.178588685271244E+07,
2460434.500000000, A.D. 2024-May-04 00:00:00.0000, -3.686667600163546E+08, -3.080824321669168E+08, 4.325619148928896E+07,
2460441.500000000, A.D. 2024-May-11 00:00:00.0000, -3.623610276730652E+08, -3.156963497409335E+08, 4.470779101869673E+07,
2460448.500000000, A.D. 2024-May-18 00:00:00.0000, -3.558988964496520E+08, -3.231740259568637E+08, 4.614009091655792E+07,
2460455.500000000, A.D. 2024-May-25 00:00:00.0000, -3.492834183497517E+08, -3.305124727183005E+08, 4.755250682782578E+07,
2460462.500000000, A.D. 2024-Jun-01 00:00:00.0000, -3.425176994057054E+08, -3.377087708627513E+08, 4.894446472250614E+07,
2460469.500000000, A.D. 2024-Jun-08 00:00:00.0000, -3.356048978137839E+08, -3.447600711941840E+08, 5.031540100473277E+07,
2460476.500000000, A.D. 2024-Jun-15 00:00:00.0000, -3.285482213856654E+08, -3.516635951007296E+08, 5.166476258358002E+07,
2460483.500000000, A.D. 2024-Jun-22 00:00:00.0000, -3.213509253223885E+08, -3.584166335825303E+08, 5.299200709424458E+07,
2460490.500000000, A.D. 2024-Jun-29 00:00:00.0000, -3.140163124328555E+08, -3.650165465108069E+08, 5.429660331564236E+07,
2460497.500000000, A.D. 2024-Jul-06 00:00:00.0000, -3.065477331527287E+08, -3.714607645905758E+08, 5.557803134020944E+07,
2460504.500000000, A.D. 2024-Jul-13 00:00:00.0000, -2.989485834161429E+08, -3.777467912042664E+08, 5.683578254842627E+07,
2460511.500000000, A.D. 2024-Jul-20 00:00:00.0000, -2.912223023670874E+08, -3.838722029878072E+08, 5.806935966440168E+07,
2460518.500000000, A.D. 2024-Jul-27 00:00:00.0000, -2.833723705668045E+08, -3.898346500985785E+08, 5.927827687430146E+07,
2460525.500000000, A.D. 2024-Aug-03 00:00:00.0000, -2.754023084242766E+08, -3.956318565505617E+08, 6.046205995181791E+07,
2460532.500000000, A.D. 2024-Aug-10 00:00:00.0000, -2.673156746841942E+08, -4.012616206221010E+08, 6.162024637501204E+07,
2460539.500000000, A.D. 2024-Aug-17 00:00:00.0000, -2.591160649256985E+08, -4.067218153157608E+08, 6.275238543199816E+07,
2460546.500000000, A.D. 2024-Aug-24 00:00:00.0000, -2.508071100450511E+08, -4.120103888935268E+08, 6.385803831120704E+07,
2460553.500000000, A.D. 2024-Aug-31 00:00:00.0000, -2.423924746077151E+08, -4.171253655494146E+08, 6.493677816068493E+07,
2460560.500000000, A.D. 2024-Sep-07 00:00:00.0000, -2.338758547054119E+08, -4.220648460931960E+08, 6.598819009322459E+07,
2460567.500000000, A.D. 2024-Sep-14 00:00:00.0000, -2.252609752336845E+08, -4.268270076487594E+08, 6.701187121070059E+07,
2460574.500000000, A.D. 2024-Sep-21 00:00:00.0000, -2.165515886187212E+08, -4.314101019531803E+08, 6.800743086688258E+07,
2460581.500000000, A.D. 2024-Sep-28 00:00:00.0000, -2.077514754796855E+08, -4.358124554833175E+08, 6.897449094894318E+07,
2460588.500000000, A.D. 2024-Oct-05 00:00:00.0000, -1.988644435557232E+08, -4.400324714094207E+08, 6.991268584088323E+07,
2460595.500000000, A.D. 2024-Oct-12 00:00:00.0000, -1.898943252581438E+08, -4.440686303977418E+08, 7.082166234569609E+07,
2460602.500000000, A.D. 2024-Oct-19 00:00:00.0000, -1.808449755991987E+08, -4.479194905347109E+08, 7.170107970513211E+07,
2460609.500000000, A.D. 2024-Oct-26 00:00:00.0000, -1.717202705306079E+08, -4.515836871752756E+08, 7.255060965493655E+07,
2460616.500000000, A.D. 2024-Nov-02 00:00:00.0000, -1.625241054352042E+08, -4.550599328644266E+08, 7.336993648011963E+07,
2460623.500000000, A.D. 2024-Nov-09 00:00:00.0000, -1.532603936754453E+08, -4.583470173115542E+08, 7.415875706327139E+07,
2460630.500000000, A.D. 2024-Nov-16 00:00:00.0000, -1.439330651729997E+08, -4.614438074177297E+08, 7.491678092375909E+07,
2460637.500000000, A.D. 2024-Nov-23 00:00:00.0000, -1.345460649725472E+08, -4.643492474061934E+08, 7.564373023966007E+07,
2460644.500000000, A.D. 2024-Nov-30 00:00:00.0000, -1.251033515815701E+08, -4.670623590990276E+08, 7.633933983008271E+07,
2460651.500000000, A.D. 2024-Dec-07 00:00:00.0000, -1.156088946667500E+08, -4.695822419196630E+08, 7.700335709399918E+07,
2460658.500000000, A.D. 2024-Dec-14 00:00:00.0000, -1.060666727956403E+08, -4.719080713972694E+08, 7.763554206892912E+07,
2460665.500000000, A.D. 2024-Dec-21 00:00:00.0000, -9.648067354186903E+07, -4.740390974133872E+08, 7.823566772070263E+07,
2460672.500000000, A.D. 2024-Dec-28 00:00:00.0000, -8.685489398059285E+07, -4.759746451582403E+08, 7.880352004089841E+07,
2460679.500000000, A.D. 2025-Jan-04 00:00:00.0000, -7.719333897654323E+07, -4.777141164218403E+08, 7.933889790837188E+07,
2460686.500000000, A.D. 2025-Jan-11 00:00:00.0000, -6.750001908607903E+07, -4.792569895611511E+08, 7.984161301813978E+07,
2460693.500000000, A.D. 2025-Jan-18 00:00:00.0000, -5.777894899029082E+07, -4.806028190625260E+08, 8.031148988703910E+07,
2460700.500000000, A.D. 2025-Jan-25 00:00:00.0000, -4.803414621558972E+07, -4.817512351741038E+08, 8.074836587531982E+07,
2460707.500000000, A.D. 2025-Feb-01 00:00:00.0000, -3.826962995201546E+07, -4.827019436383647E+08, 8.115209120451871E+07,
2460714.500000000, A.D. 2025-Feb-08 00:00:00.0000, -2.848941991037418E+07, -4.834547255053535E+08, 8.152252896802235E+07,
$$EOE